STARLINK-36445          
1 67313U 26002J   26014.91667824 -.01359258  00000+0 -51702-2 0  9997
2 67313  42.9973 276.3300 0001670 270.9203 347.3480 15.89245046  2931
STARLINK-36476          
1 67314U 26002K   26014.91667824 -.01388101  00000+0 -52896-2 0  9992
2 67314  42.9977 276.3233 0001698 269.7168 351.3792 15.89267906  2779
STARLINK-36463          
1 67315U 26002L   26014.91667824 -.01402694  00000+0 -53420-2 0  9991
2 67315  42.9976 276.3112 0001625 263.9605   1.6835 15.89310344  2832
STARLINK-36461          
1 67316U 26002M   26014.91667824 -.01416419  00000+0 -54003-2 0  9990
2 67316  42.9975 276.3036 0001593 268.4081   0.2768 15.89317249  2931
STARLINK-36450          
1 67317U 26002N   26014.91667824 -.01418675  00000+0 -54054-2 0  9993
2 67317  42.9976 276.2979 0001688 266.3235   4.6711 15.89333265  2933
STARLINK-36498          
1 67318U 26002P   26014.91667824 -.01432751  00000+0 -54587-2 0  9996
2 67318  42.9974 276.2852 0001668 264.9642  10.9396 15.89363751  2837
STARLINK-36470          
1 67319U 26002Q   26014.91667824 -.01424421  00000+0 -54268-2 0  9998
2 67319  42.9977 276.2916 0001686 267.0578   6.3952 15.89346879  2833
STARLINK-36500          
1 67320U 26002R   26014.91667824 -.01437896  00000+0 -54764-2 0  9991
2 67320  42.9978 276.2798 0001704 262.5561  15.7257 15.89380750  2835
STARLINK-36462          
1 67321U 26002S   26014.91667824 -.01455956  00000+0 -55468-2 0  9991
2 67321  42.9979 276.2669 0001698 267.6785  15.6359 15.89412642  2771
STARLINK-36434          
1 67322U 26002T   26014.91667824 -.01455905  00000+0 -55545-2 0  9992
2 67322  42.9979 276.2714 0001630 271.1645  10.3209 15.89385979  2772
STARLINK-36497          
1 67323U 26002U   26014.91667824 -.01462019  00000+0 -55697-2 0  9995
2 67323  42.9980 276.2606 0001693 268.1335  17.6625 15.89426335  2837
STARLINK-36471          
1 67324U 26002V   26014.91667824 -.01482753  00000+0 -56565-2 0  9998
2 67324  42.9984 276.2459 0001724 267.8884  23.8531 15.89442417  2775
STARLINK-36473          
1 67325U 26002W   26014.91667824 -.01475481  00000+0 -56281-2 0  9994
2 67325  42.9979 276.2527 0001708 266.5521  22.4718 15.89429722  2936
STARLINK-36430          
1 67326U 26002X   26014.91667824 -.01501171  00000+0 -57313-2 0  9998
2 67326  42.9981 276.2317 0001750 266.1192  31.1627 15.89465373  2932
STARLINK-36501          
1 67327U 26002Y   26014.91667824 -.01487751  00000+0 -56754-2 0  9994
2 67327  42.9982 276.2390 0001719 265.5016  28.9086 15.89453482  2771
STARLINK-36489          
1 67328U 26002Z   26014.91667824 -.01512996  00000+0 -57818-2 0  9997
2 67328  42.9978 276.2237 0001603 266.7327  33.6372 15.89474789  2939
STARLINK-36496          
1 67329U 26002AA  26014.91667824 -.01558948  00000+0 -58302-2 0  9994
2 67329  42.9979 276.2105 0001620 264.9636  40.5743 15.89507332  2757
STARLINK-36483          
1 67330U 26002AB  26014.91667824 -.01580978  00000+0 -59248-2 0  9994
2 67330  42.9980 276.1941 0001828 267.3753  44.4824 15.89501996  2938
STARLINK-36494          
1 67331U 26002AC  26014.91667824 -.01549723  00000+0 -57980-2 0  9999
2 67331  42.9979 276.2166 0001654 262.1256  40.9776 15.89483574  2933
STARLINK-36492          
1 67332U 26002AD  26014.91667824 -.01576603  00000+0 -59135-2 0  9991
2 67332  42.9980 276.1993 0001689 261.1942  48.5793 15.89479406  2934
STARLINK-36427          
1 67333U 26002AE  26014.91667824 -.01558255  71485-3 -34948-2 0  9999
2 67333  42.9969 275.9177 0001833 276.8473 143.8410 15.96909746  2833
SHIJIAN-29B (SJ-29B)    
1 67403U 25315C   26014.88810331 -.00000051  00000+0  00000+0 0  9996
2 67403   3.0098  99.1653 0000810 330.8798  77.1103  1.00271801   157
YAOGAN-50 01            
1 67433U 26006A   26014.98480236  .00000800  00000+0  22861-3 0  9999
2 67433 141.9982 194.6316 0164972 115.5357 246.2522 14.21836273   207
CZ-6A R/B               
1 67434U 26006B   26013.71733058  .00000541  00000+0  30805-4 0  9993
2 67434 142.0438 188.1412 0201725  82.0696 280.2897 14.62247694    24
HULIANWANG DIGUI 18A    
1 67435U 26007A   26014.04715434 -.00000128  00000+0  14297-4 0  9999
2 67435  50.0150 292.8601 0008512 274.9717  85.0211 13.92612775    65
HULIANWANG DIGUI 18B    
1 67436U 26007B   26013.90365492 -.00000130  00000+0  12827-4 0  9999
2 67436  50.0165 293.4472 0009652 261.3170  98.6636 13.92454399    49
HULIANWANG DIGUI 18C    
1 67437U 26007C   26014.98012041 -.00000127  00000+0  15432-4 0  9999
2 67437  50.0031 289.1342 0008140 270.5188  89.4779 13.92511281   198
HULIANWANG DIGUI 18D    
1 67438U 26007D   26014.04721872 -.00000128  00000+0  14444-4 0  9999
2 67438  50.0064 292.8662 0008833 266.5929  93.3960 13.92379883    60
HULIANWANG DIGUI 18E    
1 67439U 26007E   26014.98001491 -.00000126  00000+0  16531-4 0  9998
2 67439  50.0059 289.1347 0006795 268.1987  91.8134 13.92625301   190
HULIANWANG DIGUI 18F    
1 67440U 26007F   26014.04710639 -.00000129  00000+0  14185-4 0  9994
2 67440  50.0183 292.8669 0007454 266.5335  93.4713 13.92793793    68
HULIANWANG DIGUI 18G    
1 67441U 26007G   26014.04710156 -.00000129  00000+0  14174-4 0  9997
2 67441  50.0166 292.8688 0006929 270.2346  89.7759 13.92823192    66
HULIANWANG DIGUI 18H    
1 67442U 26007H   26014.97980556 -.00000126  00000+0  16459-4 0  9998
2 67442  50.0092 289.1391 0007504 283.9732  76.0333 13.92837208   199
HULIANWANG DIGUI 18J    
1 67443U 26007J   26014.04704825 -.00000129  00000+0  14073-4 0  9993
2 67443  50.0105 292.8675 0006253 279.7559  80.2635 13.93030168    60
CZ-8A R/B               
1 67444U 26007K   26014.96082978 -.00000547  00000+0 -19786-3 0  9993
2 67444  50.0122 289.0483 0092123  87.6505 273.4948 14.13545700   185
